NORAD_CAT_ID,OBJECT_NAME,OBJECT_TYPE,EPOCH,MEAN_MOTION,ECCENTRICITY,INCLINATION,RA_OF_ASC_NODE,ARG_OF_PERICENTER,MEAN_ANOMALY,BSTAR,MEAN_MOTION_DOT,MEAN_MOTION_DDOT,TLE_LINE0,TLE_LINE1,TLE_LINE2,SEMIMAJOR_AXIS,PERIOD,APOGEE,PERIGEE,DECAYED
52554.0,STARLINK-3770,PAYLOAD,2024-05-05 17:00:27,15.08849664,0.0001231,53.2188,275.2497,94.6799,265.4333,7.7704e-05,9.49e-06,0.0,0 STARLINK-3770,1 52554U 22051X   24126.70865570  .00000949  00000-0  77704-4 0  9995,2 52554  53.2188 275.2497 0001231  94.6799 265.4333 15.08849664109778,6917.851,95.437,540.567,538.864,0.0
52554.0,STARLINK-3770,PAYLOAD,2024-05-06 02:32:46,15.08844062,0.0001203,53.2181,273.4654,82.2373,277.8755,1.7016e-05,-1.7e-07,0.0,0 STARLINK-3770,1 52554U 22051X   24127.10609937 -.00000017  00000-0  17016-4 0  9990,2 52554  53.2181 273.4654 0001203  82.2373 277.8755 15.08844062109835,6917.868,95.437,540.565,538.901,0.0
52554.0,STARLINK-3770,PAYLOAD,2024-05-06 16:51:16,15.08832189,9.99e-05,53.2168,270.792,93.5545,266.5561,-2.6089e-05,-7.03e-06,0.0,0 STARLINK-3770,1 52554U 22051X   24127.70227290 -.00000703  00000-0 -26089-4 0  9997,2 52554  53.2168 270.7920 0000999  93.5545 266.5561 15.08832189109997,6917.904,95.438,540.46,539.078,0.0
52554.0,STARLINK-3770,PAYLOAD,2024-05-07 13:31:16,15.08848164,0.0001343,53.2191,266.9274,98.7781,261.3364,6.8688e-05,8.06e-06,0.0,0 STARLINK-3770,1 52554U 22051X   24128.56338123  .00000806  00000-0  68688-4 0  9993,2 52554  53.2191 266.9274 0001343  98.7781 261.3364 15.08848164110126,6917.855,95.437,540.65,538.791,0.0
52554.0,STARLINK-3770,PAYLOAD,2024-05-07 16:42:02,15.08854239,0.0001148,53.2178,266.3294,80.1213,279.9909,9.8327e-05,1.278e-05,0.0,0 STARLINK-3770,1 52554U 22051X   24128.69585670  .00001278  00000-0  98327-4 0  9995,2 52554  53.2178 266.3294 0001148  80.1213 279.9909 15.08854239110079,6917.837,95.437,540.496,538.908,0.0
52554.0,STARLINK-3770,PAYLOAD,2024-05-08 13:22:03,15.08832352,0.0001177,53.2178,262.4643,84.3772,275.7354,0.00014361,1.998e-05,0.0,0 STARLINK-3770,1 52554U 22051X   24129.55698796  .00001998  00000-0  14361-3 0  9999,2 52554  53.2178 262.4643 0001177  84.3772 275.7354 15.08832352110274,6917.904,95.438,540.583,538.955,0.0
52554.0,STARLINK-3770,PAYLOAD,2024-05-08 14:57:26,15.08840622,0.0001327,53.2173,262.1659,76.894,283.22,7.1821e-05,8.55e-06,0.0,0 STARLINK-3770,1 52554U 22051X   24129.62322665  .00000855  00000-0  71821-4 0  9992,2 52554  53.2173 262.1659 0001327  76.8940 283.2200 15.08840622110210,6917.878,95.438,540.661,538.825,0.0
52554.0,STARLINK-3770,PAYLOAD,2024-05-09 13:12:50,15.08850511,0.0001192,53.2168,258.0025,98.3438,261.7689,-6.0341e-05,-1.248e-05,0.0,0 STARLINK-3770,1 52554U 22051X   24130.55058238 -.00001248  00000-0 -60341-4 0  9992,2 52554  53.2168 258.0025 0001192  98.3438 261.7689 15.08850511110429,6917.848,95.437,540.538,538.889,0.0
52554.0,STARLINK-3770,PAYLOAD,2024-05-09 14:48:13,15.08850261,0.0001165,53.2169,257.7059,100.3521,259.7602,-6.9477e-05,-1.394e-05,0.0,0 STARLINK-3770,1 52554U 22051X   24130.61682235 -.00001394  00000-0 -69477-4 0  9990,2 52554  53.2169 257.7059 0001165 100.3521 259.7602 15.08850261110367,6917.849,95.437,540.52,538.908,0.0
52554.0,STARLINK-3770,PAYLOAD,2024-05-10 14:39:00,15.08844853,0.0001305,53.2175,253.2445,101.2515,258.8624,0.00016826,2.391e-05,0.0,0 STARLINK-3770,1 52554U 22051X   24131.61041944  .00002391  00000-0  16826-3 0  9992,2 52554  53.2175 253.2445 0001305 101.2515 258.8624 15.08844853110514,6917.866,95.437,540.633,538.828,0.0
52554.0,STARLINK-3770,PAYLOAD,2024-05-11 12:54:19,15.08935298,0.0001357,53.2154,249.0813,76.8146,283.2997,0.0013964,0.00022064,0.0,0 STARLINK-3770,1 52554U 22051X   24132.53772938  .00022064  00000-0  13964-2 0  9996,2 52554  53.2154 249.0813 0001357  76.8146 283.2997 15.08935298110729,6917.589,95.432,540.393,538.515,0.0
52554.0,STARLINK-3770,PAYLOAD,2024-05-11 17:40:31,15.08866548,0.0001983,53.2171,248.1889,84.9084,275.2134,0.0002223,3.254e-05,0.0,0 STARLINK-3770,1 52554U 22051X   24132.73647244  .00003254  00000-0  22230-3 0  9996,2 52554  53.2171 248.1889 0001983  84.9084 275.2134 15.08866548110755,6917.799,95.436,541.036,538.292,0.0
52554.0,STARLINK-3770,PAYLOAD,2024-05-11 22:26:45,15.08732437,0.0001551,53.2174,247.294,122.6287,237.4855,-0.0023649,-0.00037619,0.0,0 STARLINK-3770,1 52554U 22051X   24132.93524833 -.00037619  00000-0 -23649-2 0  9994,2 52554  53.2174 247.2940 0001551 122.6287 237.4855 15.08732437110717,6918.209,95.444,541.147,539.001,0.0
52554.0,STARLINK-3770,PAYLOAD,2024-05-12 14:20:43,15.08666626,0.0001329,53.2159,244.3275,103.2884,256.8257,-0.0026329,-0.0004175,0.0,0 STARLINK-3770,1 52554U 22051X   24133.59772496 -.00041750  00000-0 -26329-2 0  9996,2 52554  53.2159 244.3275 0001329 103.2884 256.8257 15.08666626110885,6918.41,95.449,541.195,539.356,0.0
52554.0,STARLINK-3770,PAYLOAD,2024-05-12 23:53:04,15.08690556,0.0001257,53.2177,242.5411,109.0943,251.0186,-0.0013728,-0.0002198,0.0,0 STARLINK-3770,1 52554U 22051X   24133.99519400 -.00021980  00000-0 -13728-2 0  9996,2 52554  53.2177 242.5411 0001257 109.0943 251.0186 15.08690556110941,6918.337,95.447,541.072,539.333,0.0
52554.0,STARLINK-3770,PAYLOAD,2024-05-13 14:11:31,15.08830107,0.0001663,53.2174,239.8685,108.7358,251.3815,0.0013787,0.00021716,0.0,0 STARLINK-3770,1 52554U 22051X   24134.59133269  .00021716  00000-0  13787-2 0  9998,2 52554  53.2174 239.8685 0001663 108.7358 251.3815 15.08830107110969,6917.911,95.438,540.926,538.625,0.0
52554.0,STARLINK-3770,PAYLOAD,2024-05-14 12:26:55,15.08843003,0.0001216,53.2177,235.7001,82.455,277.658,0.0020515,0.00032515,0.0,0 STARLINK-3770,1 52554U 22051X   24135.51869322  .00032515  00000-0  20515-2 0  9993,2 52554  53.2177 235.7001 0001216  82.4550 277.6580 15.08843003111178,6917.871,95.437,540.577,538.895,0.0
52554.0,STARLINK-3770,PAYLOAD,2024-05-14 23:34:34,15.08877727,0.0001286,53.2182,233.6194,85.7842,274.3297,0.0016574,0.00026215,0.0,0 STARLINK-3770,1 52554U 22051X   24135.98234768  .00026215  00000-0  16574-2 0  9994,2 52554  53.2182 233.6194 0001286  85.7842 274.3297 15.08877727111248,6917.765,95.435,540.52,538.74,0.0
52554.0,STARLINK-3770,PAYLOAD,2024-05-15 12:17:34,15.08937394,0.0001262,53.2167,231.2391,77.2298,282.8835,0.00040768,6.223e-05,0.0,0 STARLINK-3770,1 52554U 22051X   24136.51220864  .00006223  00000-0  40768-3 0  9996,2 52554  53.2167 231.2391 0001262  77.2298 282.8835 15.08937394111327,6917.583,95.431,540.321,538.575,0.0
52554.0,STARLINK-3770,PAYLOAD,2024-05-15 13:52:57,15.08948327,0.0001257,53.2169,230.9414,69.1717,290.941,0.00060161,9.328e-05,0.0,0 STARLINK-3770,1 52554U 22051X   24136.57844074  .00009328  00000-0  60161-3 0  9995,2 52554  53.2169 230.9414 0001257  69.1717 290.9410 15.08948327111261,6917.549,95.431,540.284,538.545,0.0
52554.0,STARLINK-3770,PAYLOAD,2024-05-15 15:28:19,15.0895088,0.0001131,53.2168,230.6441,81.7598,278.3522,0.00061545,9.55e-05,0.0,0 STARLINK-3770,1 52554U 22051X   24136.64467456  .00009550  00000-0  61545-3 0  9992,2 52554  53.2168 230.6441 0001131  81.7598 278.3522 15.08950880111345,6917.541,95.431,540.189,538.624,0.0
52554.0,STARLINK-3770,PAYLOAD,2024-05-15 23:25:15,15.08905788,0.000128,53.217,229.1572,91.6165,268.4974,-0.00027534,-4.675e-05,0.0,0 STARLINK-3770,1 52554U 22051X   24136.97587452 -.00004675  00000-0 -27534-3 0  9992,2 52554  53.2170 229.1572 0001280  91.6165 268.4974 15.08905788111394,6917.679,95.433,540.43,538.659,0.0
52554.0,STARLINK-3770,PAYLOAD,2024-05-16 12:08:19,15.0888785,0.0001349,53.2163,226.7772,117.4372,242.6758,-0.00048283,-7.974e-05,0.0,0 STARLINK-3770,1 52554U 22051X   24137.50578095 -.00007974  00000-0 -48283-3 0  9994,2 52554  53.2163 226.7772 0001349 117.4372 242.6758 15.08887850111476,6917.734,95.435,540.532,538.666,0.0
52554.0,STARLINK-3770,PAYLOAD,2024-05-16 23:16:01,15.08863923,9.35e-05,53.2152,224.6963,85.0818,275.0281,-0.00062519,-0.0001023,0.0,0 STARLINK-3770,1 52554U 22051X   24137.96946112 -.00010230  00000-0 -62519-3 0  9990,2 52554  53.2152 224.6963 0000935  85.0818 275.0281 15.08863923111542,6917.807,95.436,540.319,539.025,0.0
52554.0,STARLINK-3770,PAYLOAD,2024-05-17 11:59:07,15.08827297,0.0001348,53.2156,222.3168,101.6603,258.454,-0.00088451,-0.00014332,0.0,0 STARLINK-3770,1 52554U 22051X   24138.49939639 -.00014332  00000-0 -88451-3 0  9995,2 52554  53.2156 222.3168 0001348 101.6603 258.4540 15.08827297111620,6917.919,95.438,540.717,538.852,0.0
52554.0,STARLINK-3770,PAYLOAD,2024-05-18 05:28:22,15.08846204,8.55e-05,53.2152,219.0472,109.3526,250.7558,0.00061285,9.481e-05,0.0,0 STARLINK-3770,1 52554U 22051X   24139.22803696  .00009481  00000-0  61285-3 0  9993,2 52554  53.2152 219.0472 0000855 109.3526 250.7558 15.08846204111733,6917.861,95.437,540.318,539.135,0.0
52554.0,STARLINK-3770,PAYLOAD,2024-05-18 11:49:54,15.08873768,0.0001305,53.2157,217.857,89.8864,270.2278,0.0011838,0.0001862,0.0,0 STARLINK-3770,1 52554U 22051X   24139.49298862  .00018620  00000-0  11838-2 0  9998,2 52554  53.2157 217.8570 0001305  89.8864 270.2278 15.08873768111776,6917.777,95.435,540.545,538.739,0.0
52554.0,STARLINK-3770,PAYLOAD,2024-05-19 10:05:19,15.08838737,0.000134,53.2168,213.6953,91.9884,268.1261,5.5541e-05,5.96e-06,0.0,0 STARLINK-3770,1 52554U 22051X   24140.42035978  .00000596  00000-0  55541-4 0  9994,2 52554  53.2168 213.6953 0001340  91.9884 268.1261 15.08838737111845,6917.884,95.438,540.676,538.822,0.0
52554.0,STARLINK-3770,PAYLOAD,2024-05-20 11:31:29,15.08857261,0.0001463,53.2175,208.9391,93.0694,267.0465,0.0011485,0.00018046,0.0,0 STARLINK-3770,1 52554U 22051X   24141.48019908  .00018046  00000-0  11485-2 0  9992,2 52554  53.2175 208.9391 0001463  93.0694 267.0465 15.08857261112077,6917.828,95.436,540.705,538.681,0.0
52554.0,STARLINK-3770,PAYLOAD,2024-05-21 05:00:43,15.08851744,0.0001505,53.2169,205.6672,117.3888,242.7258,0.001082,0.00016979,0.0,0 STARLINK-3770,1 52554U 22051X   24142.20883879  .00016979  00000-0  10820-2 0  9994,2 52554  53.2169 205.6672 0001505 117.3888 242.7258 15.08851744112180,6917.844,95.437,540.751,538.668,0.0
